satname,norad_id,inclination_deg,eccentricity,mean_motion_rev_per_day,perigee_km,apogee_km,l1,l2
STARLINK-1300,45374,53.0549,0.0001269,15.06419926,546.2716693090506,548.0293072735785,1 45374U 20019Q   25298.61342066  .00002107  00000+0  16025-3 0  9995,2 45374  53.0549  52.9986 0001269  83.4625 276.6509 15.06419926309376
STARLINK-1302,45375,53.0566,0.0001344,15.06413258,546.2401629907608,548.1016857608338,1 45375U 20019R   25298.62816242  .00002287  00000+0  17234-3 0  9991,2 45375  53.0566  52.9330 0001344  88.3228 271.7915 15.06413258309375
STARLINK-1304,45376,53.0543,0.0001348,15.0640726,546.2557731870656,548.1228411594802,1 45376U 20019S   25298.64659987  .00002048  00000+0  15632-3 0  9990,2 45376  53.0543  52.8488 0001348  84.1596 275.9546 15.06407260309372
STARLINK-1305,45377,53.0526,0.0001306,15.31129989,471.5450101593842,473.3343807922429,1 45377U 20019T   25298.91668980 -.00005311  00000+0 -16241-3 0  9999,2 45377  53.0526  50.3092 0001306  83.5501 124.8780 15.31129989  5788
STARLINK-1319,45379,53.0544,0.0001335,15.0889905,538.6393896866712,540.486415560671,1 45379U 20019V   25298.91668980  .01631028  00000+0  93780-1 0  9991,2 45379  53.0544  51.6311 0001335  97.2749 193.9045 15.08899050  5683
STARLINK-1266,45383,53.0533,0.0001352,15.06404119,546.2626284070348,548.1352392435401,1 45383U 20019Z   25298.53418313  .00001908  00000+0  14693-3 0  9992,2 45383  53.0533  33.3560 0001352  78.6409 281.4732 15.06404119309638
STARLINK-1267,45384,53.0571,0.0001313,15.06407166,546.2802998854768,548.098890649394,1 45384U 20019AA  25298.58586675  .00010274  00000+0  70749-3 0  9995,2 45384  53.0571  33.7827 0001313  91.2569 268.8570 15.06407166309630
STARLINK-1272,45386,53.0567,0.0001103,15.31323744,471.1062695597384,472.6173793004082,1 45386U 20019AC  25298.91668980  .00928481  00000+0  28041-1 0  9998,2 45386  53.0567  30.5464 0001103  90.3830  68.4129 15.31323744  5787
STARLINK-1274,45387,53.0368,0.0003922,15.28453523,477.7447679042871,483.124631545551,1 45387U 20019AD  25298.44360939  .00051017  00000+0  18173-2 0  9998,2 45387  53.0368  19.9754 0003922 214.3948 145.6797 15.28453523309814
STARLINK-1280,45388,53.0554,0.0001371,15.3467589,460.9455930409458,462.82112662361124,1 45388U 20019AE  25298.91668980  .01670076  00000+0  44368-1 0  9995,2 45388  53.0554  50.2455 0001371  86.7261 276.4529 15.34675890  5799
STARLINK-1283,45389,53.0563,0.0001907,15.29492096,476.0222208850937,478.636895830452,1 45389U 20019AF  25298.58508644  .00068001  00000+0  23373-2 0  9991,2 45389  53.0563  30.5542 0001907  20.6216 339.4860 15.29492096309682
STARLINK-1284,45390,53.0546,0.0001365,15.06419693,546.2059005474812,548.0965042267335,1 45390U 20019AG  25298.53786285  .00016659  00000+0  11340-2 0  9990,2 45390  53.0546  33.3402 0001365  91.5096 268.6050 15.06419693309638
STARLINK-1292,45394,53.0521,0.0007991,15.90710796,294.9559180743863,305.6293843429494,1 45394U 20019AL  25298.91668980  .00332720  52305-4  10538-2 0  9995,2 45394  53.0521 345.2444 0007991 356.0709 245.2166 15.90710796  5696
STARLINK-1297,45395,53.0573,0.0001801,15.06419918,545.9032685285665,548.39775709068,1 45395U 20019AM  25298.64107615  .00011155  00000+0  76616-3 0  9995,2 45395  53.0573  32.8768 0001801  88.5664 271.5531 15.06419918308832
STARLINK-1307,45397,53.0555,0.0001397,15.06408716,546.2173773206969,548.1523122441295,1 45397U 20019AP  25298.56734235  .00000956  00000+0  83072-4 0  9994,2 45397  53.0555  33.2052 0001397  99.5255 260.5892 15.06408716309465
STARLINK-1312,45398,53.0432,0.0005272,15.94106352,287.2897388108531,294.3214718939362,1 45398U 20019AQ  25298.91668980  .00501873  11189-3  13298-2 0  9996,2 45398  53.0432 344.6104 0005272 352.1987 133.3177 15.94106352  5984
STARLINK-1255,45399,53.0487,0.0001873,15.29751555,475.2704887513073,477.83825613942463,1 45399U 20019AR  25298.91668980  .00052833  00000+0  18080-2 0  9994,2 45399  53.0487  20.1078 0001873  38.6095 299.8610 15.29751555  5732
STARLINK-1259,45403,53.0381,0.0003741,16.1929108,219.00844612803485,223.946277593579,1 45403U 20019AV  25298.56109747  .01766418  11806-4  93990-3 0  9999,2 45403  53.0381 324.5339 0003741  33.4382 326.6891 16.19291080310405
STARLINK-1260,45404,53.055,0.0001287,15.06414466,546.2759354331793,548.058508739945,1 45404U 20019AW  25298.50192399  .00000687  00000+0  64952-4 0  9993,2 45404  53.0550  23.4992 0001287  83.4733 276.6402 15.06414466309480
STARLINK-1263,45405,53.056,0.0001387,15.06429203,546.1615229640502,548.0825898262947,1 45405U 20019AX  25298.61987873  .00014360  00000+0  98016-3 0  9995,2 45405  53.0560  22.9722 0001387  95.0934 265.0213 15.06429203309500
STARLINK-1265,45406,53.0553,0.0001331,15.06417097,546.2374016725798,548.0809155099969,1 45406U 20019AY  25298.56090321  .00016447  00000+0  11199-2 0  9997,2 45406  53.0553  23.2366 0001331 102.4433 257.6705 15.06417097309496
STARLINK-1278,45408,53.057,7.46e-05,15.32092378,469.0597474769038,470.081425448805,1 45408U 20019BA  25298.91668980  .00053822  00000+0  17125-2 0  9993,2 45408  53.0570  50.4699 0000746  85.8960 141.6184 15.32092378  5784
STARLINK-1296,45412,53.0546,0.0001272,15.06426043,546.2508468602064,548.0126352279285,1 45412U 20019BE  25298.56458618  .00014120  00000+0  96426-3 0  9994,2 45412  53.0546  23.2188 0001272  81.0041 279.1092 15.06426043309497
STARLINK-1298,45413,53.0489,0.0007643,15.51073118,408.40074861014364,418.7825850502604,1 45413U 20019BF  25298.58455912  .00106624  00000+0  17824-2 0  9996,2 45413  53.0489   1.1642 0007643 281.1828  78.8321 15.51073118309904
STARLINK-1309,45414,53.0545,0.0001331,15.0642753,546.2054310754411,548.0489364011519,1 45414U 20019BG  25298.71202302  .00018635  00000+0  12657-2 0  9998,2 45414  53.0545  22.5577 0001331  99.7703 260.3436 15.06427530309507
STARLINK-1316,45415,53.0561,0.0001379,15.06411693,546.2207201849906,548.1307214333892,1 45415U 20019BH  25298.53878163  .00003628  00000+0  26225-3 0  9996,2 45415  53.0561  23.3339 0001379 101.9846 258.1297 15.06411693309511
STARLINK-1318,45416,53.0527,0.0004395,15.59607762,385.8173566238029,391.7654867064466,1 45416U 20019BJ  25298.53763811  .00056669  00000+0  69996-3 0  9995,2 45416  53.0527 353.2615 0004395  17.1350 342.9809 15.59607762309923
STARLINK-1286,45417,53.0537,0.0001761,15.26183984,486.02346464591574,488.4414477683913,1 45417U 20019BK  25298.91668980  .00065233  00000+0  24811-2 0  9992,2 45417  53.0537  50.8682 0001761  75.2187   6.2479 15.26183984  5796
STARLINK-1308,45419,53.0547,0.0001302,15.06408849,546.282760309412,548.0861140116494,1 45419U 20019BM  25298.70556727  .00001488  00000+0  11872-3 0  9992,2 45419  53.0547  52.5848 0001302  79.4401 280.6735 15.06408849309123
STARLINK-1329,45531,53.0555,0.0001375,15.0643106,546.1641428096527,548.0685874850678,1 45531U 20025A   25298.47519351  .00013750  00000+0  93942-3 0  9993,2 45531  53.0555 353.6208 0001375 100.3793 259.7351 15.06431060304712
STARLINK-1338,45532,53.0563,0.0001336,15.06407766,546.262532981591,548.1129797564927,1 45532U 20025B   25298.41992294  .00008102  00000+0  56208-3 0  9998,2 45532  53.0563 353.8674 0001336  86.4360 273.6781 15.06407766304709
STARLINK-1350,45535,53.0754,0.000133,15.32070804,468.7241170814077,470.54562439902475,1 45535U 20025E   25298.28816792  .00014214  00000+0  46355-3 0  9997,2 45535  53.0754 307.1479 0001330  55.9101 304.2025 15.32070804305371
STARLINK-1362,45538,53.0554,0.0001424,15.06418811,546.1677441075508,548.1400669574468,1 45538U 20025H   25298.45211343  .00004474  00000+0  31890-3 0  9995,2 45538  53.0554 353.4413 0001424  98.6445 261.4706 15.06418811304715
STARLINK-1368,45540,53.0553,0.0001635,15.0639507,546.0943707597635,548.3589646791079,1 45540U 20025K   25298.45679036  .00004469  00000+0  31874-3 0  9991,2 45540  53.0553 353.7046 0001635  87.5328 272.5849 15.06395070304704
STARLINK-1371,45542,53.0551,0.0001294,15.06409884,546.2851288839711,548.0774012509701,1 45542U 20025M   25298.42729535 -.00000696  00000+0 -27822-4 0  9999,2 45542  53.0551 353.8350 0001294  90.4179 269.6958 15.06409884304708
STARLINK-1372,45543,53.0555,0.0001424,15.06412129,546.1882202084362,548.1605488907562,1 45543U 20025N   25298.53049101  .00003182  00000+0  23235-3 0  9990,2 45543  53.0555 353.3717 0001424  88.6763 271.4389 15.06412129303814
STARLINK-1373,45544,53.0547,0.0001442,15.06403894,546.2009898737288,548.1982569559223,1 45544U 20025P   25298.54893058  .00004114  00000+0  29487-3 0  9991,2 45544  53.0547 353.2904 0001442  98.2184 261.8968 15.06403894304723
STARLINK-1294,45551,53.0495,0.000808,15.58429625,386.7309869669434,397.6718538543264,1 45551U 20025W   25298.40491514  .00076978  00000+0  98831-3 0  9991,2 45551  53.0495 289.3480 0008080  33.7915 326.3610 15.58429625305619
STARLINK-1325,45554,53.0571,0.0001878,15.57653785,393.1774665680696,395.7212500042406,1 45554U 20025Z   25298.91668980  .00306339  00000+0  39199-2 0  9991,2 45554  53.0571 279.8130 0001878 110.9621  52.7505 15.57653785  5810
STARLINK-1327,45555,53.0551,0.0001423,15.0640611,546.2073572965182,548.1783061666301,1 45555U 20025AA  25298.72031736  .00002712  00000+0  20088-3 0  9990,2 45555  53.0551 332.5189 0001423  83.8098 276.3053 15.06406110305022
STARLINK-1356,45564,53.0549,0.0001305,15.06411833,546.271538480868,548.079044989011,1 45564U 20025AK  25298.79034678 -.00006329  00000+0 -40622-3 0  9991,2 45564  53.0549 332.2033 0001305  92.5826 267.5312 15.06411833305038
STARLINK-1357,45565,53.064,0.0006832,15.31112998,467.81002803781394,477.1707252852848,1 45565U 20025AL  25298.78057545  .00076853  00000+0  25067-2 0  9991,2 45565  53.0640 318.3084 0006832 324.2275  35.8267 15.31112998305230
STARLINK-1361,45567,53.0545,0.0001463,15.06400317,546.1974080272175,548.2237647309912,1 45567U 20025AN  25298.41070352  .00003091  00000+0  22632-3 0  9994,2 45567  53.0545 333.9079 0001463  84.4346 275.6810 15.06400317304988
